GPS BIIR-2  (PRN 13)    
1 24876C 97035A   20277.82645833 -.00000000  00000-0  00000-0 0  2778
2 24876  55.4578 179.9252 0043992  58.5328  82.9640  2.00561733    13
GPS BIIR-3  (PRN 11)    
1 25933C 99055A   20277.82645833 -.00000000  00000-0  00000-0 0  2777
2 25933  52.3457  25.3438 0156533 117.8252 323.3922  2.00557925    14
GPS BIIR-4  (PRN 20)    
1 26360C 00025A   20277.82645833 -.00000000  00000-0  00000-0 0  2771
2 26360  53.5968 104.6616 0056041 157.9323 323.3340  2.00564823    14
GPS BIIR-5  (PRN 28)    
1 26407C 00040A   20277.82645833  .00000000  00000-0  00000-0 0  2779
2 26407  55.9160 297.8937 0186624 280.2030 162.7307  2.00564907    14
GPS BIIR-8  (PRN 16)    
1 27663C 03005A   20277.82645833  .00000000  00000-0  00000-0 0  2778
2 27663  55.9707 297.6843 0114354  34.9940 170.5040  2.00574954    19
GPS BIIR-9  (PRN 21)    
1 27704C 03010A   20277.82645833 -.00000000  00000-0  00000-0 0  2771
2 27704  54.6998  48.5798 0240229 286.2734 164.1809  2.00406744    12
GPS BIIR-10 (PRN 22)    
1 28129C 03058A   20277.82645833 -.00000000  00000-0  00000-0 0  2775
2 28129  53.4071 107.3564 0069232 296.9108  63.3542  2.00558264    13
GPS BIIR-11 (PRN 19)    
1 28190C 04009A   20277.82645833  .00000000  00000-0  00000-0 0  2779
2 28190  56.2563 358.5042 0089713  99.2995 260.6864  2.00560936    11
GPS BIIR-13 (PRN 02)    
1 28474C 04045A   20277.82645833 -.00000000  00000-0  00000-0 0  2775
2 28474  55.0410  48.4916 0201206 268.2063   7.2213  2.00550488    10
GPS BIIRM-1 (PRN 17)    
1 28874C 05038A   20277.82645833  .00000000  00000-0  00000-0 0  2771
2 28874  56.3531 355.9008 0137499 266.4891 112.0909  2.00553753    16
GPS BIIRM-2 (PRN 31)    
1 29486C 06042A   20277.82645833  .00000000  00000-0  00000-0 0  2777
2 29486  54.8320 234.0484 0096929   8.3572 297.0700  2.00564600    17
GPS BIIRM-3 (PRN 12)    
1 29601C 06052A   20277.82645833  .00000000  00000-0  00000-0 0  2777
2 29601  55.9607 296.6049 0076849  66.2499 276.3686  2.00570194    15
GPS BIIRM-4 (PRN 15)    
1 32260C 07047A   20277.82645833 -.00000000  00000-0  00000-0 0  2778
2 32260  53.1974 166.3020 0126664  52.5125  68.6219  2.00553475    11
GPS BIIRM-5 (PRN 29)    
1 32384C 07062A   20277.82645833  .00000000  00000-0  00000-0 0  2771
2 32384  56.4519 356.5872 0013976 134.8937 116.2995  2.00556340    18
GPS BIIRM-6 (PRN 07)    
1 32711C 08012A   20277.82645833  .00000000  00000-0  00000-0 0  2771
2 32711  54.5803 233.1266 0144017 225.2069 314.5201  2.00567856    13
GPS BIIRM-8 (PRN 05)    
1 35752C 09043A   20277.82645833 -.00000000  00000-0  00000-0 0  2775
2 35752  54.6514 110.6459 0059351  48.8817 161.7194  2.00555649    10
GPS BIIF-1  (PRN 25)    
1 36585C 10022A   20277.82645833  .00000000  00000-0  00000-0 0  2778
2 36585  55.2342 292.5629 0089597  52.4879 261.7406  2.00557614    15
GPS BIIF-2  (PRN 01)    
1 37753C 11036A   20277.82645833 -.00000000  00000-0  00000-0 0  2773
2 37753  56.2503  53.0139 0099356  46.6127 355.3973  2.00561447    12
GPS BIIF-3  (PRN 24)    
1 38833C 12053A   20277.82645833  .00000000  00000-0  00000-0 0  2772
2 38833  53.6245 228.8690 0100588  38.0481  13.5645  2.00568012    12
GPS BIIF-4  (PRN 27)    
1 39166C 13023A   20277.82645833  .00000000  00000-0  00000-0 0  2770
2 39166  56.0102 352.5077 0082496  31.5285 120.6213  2.00564407    17
GPS BIIF-5  (PRN 30)    
1 39533C 14008A   20277.82645833  .00000000  00000-0  00000-0 0  2772
2 39533  53.7370 234.3138 0048609 201.6335 311.2503  2.00573954    12
GPS BIIF-6  (PRN 06)    
1 39741C 14026A   20277.82645833 -.00000000  00000-0  00000-0 0  2774
2 39741  56.2230  52.5412 0020344 291.7897  19.4813  2.00569950    12
GPS BIIF-7  (PRN 09)    
1 40105C 14045A   20277.82645833 -.00000000  00000-0  00000-0 0  2771
2 40105  54.5967 171.6230 0016110 102.2829 141.9228  2.00566832    11
GPS BIIF-8  (PRN 03)    
1 40294C 14068A   20277.82645833 -.00000000  00000-0  00000-0 0  2775
2 40294  55.4006 112.5746 0030762  47.6559 290.4567  2.00556474    18
GPS BIIF-9  (PRN 26)    
1 40534C 15013A   20277.82645833  .00000000  00000-0  00000-0 0  2772
2 40534  54.1468 290.4031 0049889   8.6654 232.1646  2.00562150    18
GPS BIIF-10 (PRN 08)    
1 40730C 15033A   20277.82645833  .00000000  00000-0  00000-0 0  2772
2 40730  55.5243 351.6292 0055433 353.6121 129.4464  2.00557600    15
GPS BIIF-11 (PRN 10)    
1 41019C 15062A   20277.82645833 -.00000000  00000-0  00000-0 0  2776
2 41019  55.3962 112.4037 0060681 209.2533 238.4739  2.00564368    11
GPS BIIF-12 (PRN 32)    
1 41328C 16007A   20277.82645833 -.00000000  00000-0  00000-0 0  2779
2 41328  54.8298 172.1379 0043269 222.0611 156.0938  2.00573429    19
GPS BIII-1  (PRN 04)    
1 43873C 18109A   20277.82645833 -.00000000  00000-0  00000-0 0  2771
2 43873  55.0111 174.4268 0009198 206.7816  68.2244  2.00569113    13
GPS BIII-2  (PRN 18)    
1 44506C 19056A   20277.82645833 -.00000000  00000-0  00000-0 0  2777
2 44506  55.3124  53.8896 0010247 171.9628   4.5165  2.00559896    14
GPS BIII-3  (PRN 23)    
1 45854C 20041A   20277.82645833 -.00000000  00000-0  00000-0 0  2770
2 45854  55.1058 111.1305 0008373 116.8482 357.0116  2.00569961    17
